{
    "links": {
        "self": "http://www.neowsapp.com/rest/v1/neo/3991618?api_key=iIulBulltgU6a56xZRHN4H3l9WmuAYTsLGpBGhQ2"
    },
    "id": "3991618",
    "neo_reference_id": "3991618",
    "name": "(2020 DN)",
    "designation": "2020 DN",
    "nasa_jpl_url": "http://ssd.jpl.nasa.gov/sbdb.cgi?sstr=3991618",
    "absolute_magnitude_h": 23.856,
    "estimated_diameter": {
        "kilometers": {
            "estimated_diameter_min": 0.0450147639,
            "estimated_diameter_max": 0.1006560721
        },
        "meters": {
            "estimated_diameter_min": 45.014763897,
            "estimated_diameter_max": 100.6560720648
        },
        "miles": {
            "estimated_diameter_min": 0.0279708689,
            "estimated_diameter_max": 0.0625447642
        },
        "feet": {
            "estimated_diameter_min": 147.6862379839,
            "estimated_diameter_max": 330.2364674732
        }
    },
    "is_potentially_hazardous_asteroid": false,
    "close_approach_data": [
        {
            "close_approach_date": "2020-02-19",
            "close_approach_date_full": "2020-Feb-19 03:42",
            "epoch_date_close_approach": 1582083720000,
            "relative_velocity": {
                "kilometers_per_second": "18.1531805725",
                "kilometers_per_hour": "65351.4500610734",
                "miles_per_hour": "40606.8496226709"
            },
            "miss_distance": {
                "astronomical": "0.1772804522",
                "lunar": "68.9620959058",
                "kilometers": "26520778.041756814",
                "miles": "16479247.3222954732"
            },
            "orbiting_body": "Earth"
        }
    ],
    "orbital_data": {
        "orbit_id": "5",
        "orbit_determination_date": "2020-03-12 06:06:51",
        "first_observation_date": "2020-02-16",
        "last_observation_date": "2020-03-04",
        "data_arc_in_days": 17,
        "observations_used": 33,
        "orbit_uncertainty": "8",
        "minimum_orbit_intersection": ".165843",
        "jupiter_tisserand_invariant": "3.786",
        "epoch_osculation": "2458898.5",
        "eccentricity": ".3637552603268513",
        "semi_major_axis": "1.814362592154732",
        "inclination": "33.38744513679129",
        "ascending_node_longitude": "330.7322286242994",
        "orbital_period": "892.6568698535048",
        "perihelion_distance": "1.154378655118187",
        "perihelion_argument": "178.6196001273849",
        "aphelion_distance": "2.474346529191277",
        "perihelion_time": "2458894.674851788278",
        "mean_anomaly": "1.542645783307432",
        "mean_motion": ".4032904603748584",
        "equinox": "J2000",
        "orbit_class": {
            "orbit_class_type": "AMO",
            "orbit_class_description": "Near-Earth asteroid orbits similar to that of 1221 Amor",
            "orbit_class_range": "1.017 AU < q (perihelion) < 1.3 AU"
        }
    },
    "is_sentry_object": false
}